STARLINK-3640           
1 51988U 22025AJ  26073.86301491 -.00000627  00000+0 -21283-4 0  9998
2 51988  53.2188  15.8965 0001528  91.9746 268.1421 15.08837492221844
STARLINK-3642           
1 51989U 22025AK  26073.81150742  .00000345  00000+0  39745-4 0  9992
2 51989  53.2195  16.1280 0001285  68.8469 291.2661 15.08836546221833
STARLINK-3657           
1 51990U 22025AL  26073.78021061  .00001970  00000+0  14175-3 0  9995
2 51990  53.2176 356.2680 0001781  92.6404 267.4792 15.08858084222103
STARLINK-3652           
1 51991U 22025AM  26073.53916758  .00000932  00000+0  76625-4 0  9991
2 51991  53.2195  17.3517 0001482  86.3541 273.7621 15.08843053221794
STARLINK-3643           
1 51992U 22025AN  26073.50421330  .00001047  00000+0  83860-4 0  9993
2 51992  53.2191 357.5104 0001449  84.1901 275.9256 15.08838823221631
STARLINK-3648           
1 51993U 22025AP  26073.85933107  .00000249  00000+0  33711-4 0  9995
2 51993  53.2183  15.9143 0001603  85.3109 274.8067 15.08838010221845
STARLINK-3647           
1 51994U 22025AQ  26073.76549015  .00001892  00000+0  13694-3 0  9999
2 51994  53.2185 356.3385 0001644  79.9859 280.1318 15.08846114221689
STARLINK-3636           
1 51995U 22025AR  26073.90901276  .00000411  00000+0  43937-4 0  9997
2 51995  53.2188 355.6915 0001560  90.1073 270.0098 15.08839692221691
STARLINK-3538           
1 51996U 22025AS  26073.49684953  .00000633  00000+0  57871-4 0  9990
2 51996  53.2195 357.5409 0001506  77.2143 282.9017 15.08843056221640
STARLINK-3589           
1 51997U 22025AT  26073.77283992  .00000363  00000+0  40871-4 0  9992
2 51997  53.2183 356.3058 0001927  96.8479 263.2732 15.08849603221674
STARLINK-3618           
1 51998U 22025AU  26073.93107224  .00000190  00000+0  30043-4 0  9992
2 51998  53.2194 355.5907 0001355  70.6778 289.4361 15.08862574221713
STARLINK-3653           
1 52000U 22025AW  26073.91635479  .00000123  00000+0  25790-4 0  9992
2 52000  53.2186 355.5661 0001566  98.6506 261.4664 15.08847579221713
STARLINK-3659           
1 52001U 22025AX  26073.92836502  .00000016  00000+0  19097-4 0  9998
2 52001  53.2194 355.6149 0001375  82.1986 277.9163 15.08844215221713
STARLINK-3668           
1 52002U 22025AY  26073.92741537 -.00000479  00000+0 -12010-4 0  9995
2 52002  53.2180 355.6457 0001226  87.6028 272.5104 15.08839571221718
STARLINK-3712           
1 52090U 22029C   26073.71488901  .00001084  00000+0  86167-4 0  9991
2 52090  53.2156  66.5597 0001024 101.1894 258.9213 15.08839053221411
STARLINK-3716           
1 52092U 22029E   26073.25488600 -.00000020  00000+0  16859-4 0  9999
2 52092  53.2166  68.6262 0001473  84.1422 275.9738 15.08843964221340
