[{"OBJECT_NAME":"STARLINK-3640","OBJECT_ID":"2022-025AJ","EPOCH":"2026-03-14T20:42:44.488224","MEAN_MOTION":15.08837492,"ECCENTRICITY":0.00015284,"INCLINATION":53.2188,"RA_OF_ASC_NODE":15.8965,"ARG_OF_PERICENTER":91.9746,"MEAN_ANOMALY":268.1421,"EPHEMERIS_TYPE":0,"CLASSIFICATION_TYPE":"U","NORAD_CAT_ID":51988,"ELEMENT_SET_NO":999,"REV_AT_EPOCH":22184,"BSTAR":-2.1283289e-5,"MEAN_MOTION_DOT":-6.27e-6,"MEAN_MOTION_DDOT":0},{"OBJECT_NAME":"STARLINK-3642","OBJECT_ID":"2022-025AK","EPOCH":"2026-03-14T19:28:34.241088","MEAN_MOTION":15.08836546,"ECCENTRICITY":0.00012852,"INCLINATION":53.2195,"RA_OF_ASC_NODE":16.128,"ARG_OF_PERICENTER":68.8469,"MEAN_ANOMALY":291.2661,"EPHEMERIS_TYPE":0,"CLASSIFICATION_TYPE":"U","NORAD_CAT_ID":51989,"ELEMENT_SET_NO":999,"REV_AT_EPOCH":22183,"BSTAR":3.974543e-5,"MEAN_MOTION_DOT":3.45e-6,"MEAN_MOTION_DDOT":0},{"OBJECT_NAME":"STARLINK-3657","OBJECT_ID":"2022-025AL","EPOCH":"2026-03-14T18:43:30.196704","MEAN_MOTION":15.08858084,"ECCENTRICITY":0.00017812,"INCLINATION":53.2176,"RA_OF_ASC_NODE":356.268,"ARG_OF_PERICENTER":92.6404,"MEAN_ANOMALY":267.4792,"EPHEMERIS_TYPE":0,"CLASSIFICATION_TYPE":"U","NORAD_CAT_ID":51990,"ELEMENT_SET_NO":999,"REV_AT_EPOCH":22210,"BSTAR":0.00014175116,"MEAN_MOTION_DOT":1.97e-5,"MEAN_MOTION_DDOT":0},{"OBJECT_NAME":"STARLINK-3652","OBJECT_ID":"2022-025AM","EPOCH":"2026-03-14T12:56:24.078912","MEAN_MOTION":15.08843053,"ECCENTRICITY":0.00014829,"INCLINATION":53.2195,"RA_OF_ASC_NODE":17.3517,"ARG_OF_PERICENTER":86.3541,"MEAN_ANOMALY":273.7621,"EPHEMERIS_TYPE":0,"CLASSIFICATION_TYPE":"U","NORAD_CAT_ID":51991,"ELEMENT_SET_NO":999,"REV_AT_EPOCH":22179,"BSTAR":7.6624719e-5,"MEAN_MOTION_DOT":9.32e-6,"MEAN_MOTION_DDOT":0},{"OBJECT_NAME":"STARLINK-3643","OBJECT_ID":"2022-025AN","EPOCH":"2026-03-14T12:06:04.029120","MEAN_MOTION":15.08838823,"ECCENTRICITY":0.00014494,"INCLINATION":53.2191,"RA_OF_ASC_NODE":357.5104,"ARG_OF_PERICENTER":84.1901,"MEAN_ANOMALY":275.9256,"EPHEMERIS_TYPE":0,"CLASSIFICATION_TYPE":"U","NORAD_CAT_ID":51992,"ELEMENT_SET_NO":999,"REV_AT_EPOCH":22163,"BSTAR":8.3859796e-5,"MEAN_MOTION_DOT":1.047e-5,"MEAN_MOTION_DDOT":0},{"OBJECT_NAME":"STARLINK-3648","OBJECT_ID":"2022-025AP","EPOCH":"2026-03-14T20:37:26.204448","MEAN_MOTION":15.0883801,"ECCENTRICITY":0.00016039,"INCLINATION":53.2183,"RA_OF_ASC_NODE":15.9143,"ARG_OF_PERICENTER":85.3109,"MEAN_ANOMALY":274.8067,"EPHEMERIS_TYPE":0,"CLASSIFICATION_TYPE":"U","NORAD_CAT_ID":51993,"ELEMENT_SET_NO":999,"REV_AT_EPOCH":22184,"BSTAR":3.3710933e-5,"MEAN_MOTION_DOT":2.49e-6,"MEAN_MOTION_DDOT":0},{"OBJECT_NAME":"STARLINK-3647","OBJECT_ID":"2022-025AQ","EPOCH":"2026-03-14T18:22:18.348960","MEAN_MOTION":15.08846114,"ECCENTRICITY":0.00016443,"INCLINATION":53.2185,"RA_OF_ASC_NODE":356.3385,"ARG_OF_PERICENTER":79.9859,"MEAN_ANOMALY":280.1318,"EPHEMERIS_TYPE":0,"CLASSIFICATION_TYPE":"U","NORAD_CAT_ID":51994,"ELEMENT_SET_NO":999,"REV_AT_EPOCH":22168,"BSTAR":0.00013694383,"MEAN_MOTION_DOT":1.892e-5,"MEAN_MOTION_DDOT":0},{"OBJECT_NAME":"STARLINK-3636","OBJECT_ID":"2022-025AR","EPOCH":"2026-03-14T21:48:58.702464","MEAN_MOTION":15.08839692,"ECCENTRICITY":0.00015602,"INCLINATION":53.2188,"RA_OF_ASC_NODE":355.6915,"ARG_OF_PERICENTER":90.1073,"MEAN_ANOMALY":270.0098,"EPHEMERIS_TYPE":0,"CLASSIFICATION_TYPE":"U","NORAD_CAT_ID":51995,"ELEMENT_SET_NO":999,"REV_AT_EPOCH":22169,"BSTAR":4.3936569e-5,"MEAN_MOTION_DOT":4.11e-6,"MEAN_MOTION_DDOT":0},{"OBJECT_NAME":"STARLINK-3538","OBJECT_ID":"2022-025AS","EPOCH":"2026-03-14T11:55:27.799392","MEAN_MOTION":15.08843056,"ECCENTRICITY":0.00015062,"INCLINATION":53.2195,"RA_OF_ASC_NODE":357.5409,"ARG_OF_PERICENTER":77.2143,"MEAN_ANOMALY":282.9017,"EPHEMERIS_TYPE":0,"CLASSIFICATION_TYPE":"U","NORAD_CAT_ID":51996,"ELEMENT_SET_NO":999,"REV_AT_EPOCH":22164,"BSTAR":5.7870815e-5,"MEAN_MOTION_DOT":6.33e-6,"MEAN_MOTION_DDOT":0},{"OBJECT_NAME":"STARLINK-3589","OBJECT_ID":"2022-025AT","EPOCH":"2026-03-14T18:32:53.369088","MEAN_MOTION":15.08849603,"ECCENTRICITY":0.00019278,"INCLINATION":53.2183,"RA_OF_ASC_NODE":356.3058,"ARG_OF_PERICENTER":96.8479,"MEAN_ANOMALY":263.2732,"EPHEMERIS_TYPE":0,"CLASSIFICATION_TYPE":"U","NORAD_CAT_ID":51997,"ELEMENT_SET_NO":999,"REV_AT_EPOCH":22167,"BSTAR":4.0871438e-5,"MEAN_MOTION_DOT":3.63e-6,"MEAN_MOTION_DDOT":0},{"OBJECT_NAME":"STARLINK-3618","OBJECT_ID":"2022-025AU","EPOCH":"2026-03-14T22:20:44.641536","MEAN_MOTION":15.08862574,"ECCENTRICITY":0.00013554,"INCLINATION":53.2194,"RA_OF_ASC_NODE":355.5907,"ARG_OF_PERICENTER":70.6778,"MEAN_ANOMALY":289.4361,"EPHEMERIS_TYPE":0,"CLASSIFICATION_TYPE":"U","NORAD_CAT_ID":51998,"ELEMENT_SET_NO":999,"REV_AT_EPOCH":22171,"BSTAR":3.0042688e-5,"MEAN_MOTION_DOT":1.9e-6,"MEAN_MOTION_DDOT":0},{"OBJECT_NAME":"STARLINK-3653","OBJECT_ID":"2022-025AW","EPOCH":"2026-03-14T21:59:33.053856","MEAN_MOTION":15.08847579,"ECCENTRICITY":0.00015668,"INCLINATION":53.2186,"RA_OF_ASC_NODE":355.5661,"ARG_OF_PERICENTER":98.6506,"MEAN_ANOMALY":261.4664,"EPHEMERIS_TYPE":0,"CLASSIFICATION_TYPE":"U","NORAD_CAT_ID":52000,"ELEMENT_SET_NO":999,"REV_AT_EPOCH":22171,"BSTAR":2.5789852e-5,"MEAN_MOTION_DOT":1.23e-6,"MEAN_MOTION_DDOT":0},{"OBJECT_NAME":"STARLINK-3659","OBJECT_ID":"2022-025AX","EPOCH":"2026-03-14T22:16:50.737728","MEAN_MOTION":15.08844215,"ECCENTRICITY":0.00013751,"INCLINATION":53.2194,"RA_OF_ASC_NODE":355.6149,"ARG_OF_PERICENTER":82.1986,"MEAN_ANOMALY":277.9163,"EPHEMERIS_TYPE":0,"CLASSIFICATION_TYPE":"U","NORAD_CAT_ID":52001,"ELEMENT_SET_NO":999,"REV_AT_EPOCH":22171,"BSTAR":1.9097419e-5,"MEAN_MOTION_DOT":1.6e-7,"MEAN_MOTION_DDOT":0},{"OBJECT_NAME":"STARLINK-3668","OBJECT_ID":"2022-025AY","EPOCH":"2026-03-14T22:15:28.687968","MEAN_MOTION":15.08839571,"ECCENTRICITY":0.00012265,"INCLINATION":53.218,"RA_OF_ASC_NODE":355.6457,"ARG_OF_PERICENTER":87.6028,"MEAN_ANOMALY":272.5104,"EPHEMERIS_TYPE":0,"CLASSIFICATION_TYPE":"U","NORAD_CAT_ID":52002,"ELEMENT_SET_NO":999,"REV_AT_EPOCH":22171,"BSTAR":-1.2010107e-5,"MEAN_MOTION_DOT":-4.79e-6,"MEAN_MOTION_DDOT":0},{"OBJECT_NAME":"STARLINK-3712","OBJECT_ID":"2022-029C","EPOCH":"2026-03-14T17:09:26.410464","MEAN_MOTION":15.08839053,"ECCENTRICITY":0.00010245,"INCLINATION":53.2156,"RA_OF_ASC_NODE":66.5597,"ARG_OF_PERICENTER":101.1894,"MEAN_ANOMALY":258.9213,"EPHEMERIS_TYPE":0,"CLASSIFICATION_TYPE":"U","NORAD_CAT_ID":52090,"ELEMENT_SET_NO":999,"REV_AT_EPOCH":22141,"BSTAR":8.6166645e-5,"MEAN_MOTION_DOT":1.084e-5,"MEAN_MOTION_DDOT":0},{"OBJECT_NAME":"STARLINK-3716","OBJECT_ID":"2022-029E","EPOCH":"2026-03-14T06:07:02.150400","MEAN_MOTION":15.08843964,"ECCENTRICITY":0.00014735,"INCLINATION":53.2166,"RA_OF_ASC_NODE":68.6262,"ARG_OF_PERICENTER":84.1422,"MEAN_ANOMALY":275.9738,"EPHEMERIS_TYPE":0,"CLASSIFICATION_TYPE":"U","NORAD_CAT_ID":52092,"ELEMENT_SET_NO":999,"REV_AT_EPOCH":22134,"BSTAR":1.6858583e-5,"MEAN_MOTION_DOT":-2.0e-7,"MEAN_MOTION_DDOT":0}]
